{
"type": "FeatureCollection",
"name": "rivers",
"crs": { "type": "name", "properties": { "name": "urn:ogc:def:crs:OGC:1.3:CRS84" } },
"features": [
{ "type": "Feature", "properties": { "river_id": "RV1", "river_name": "Rivière principale" }, "geometry": { "type": "LineString", "coordinates": [ [ -2.5, 47.15 ], [ -2.3, 47.15 ], [ -2.1, 47.2 ], [ -1.9, 47.1 ], [ -1.6, 47.1 ] ] } },
{ "type": "Feature", "properties": { "river_id": "RV2", "river_name": "Affluent nord" }, "geometry": { "type": "LineString", "coordinates": [ [ -2.5, 47.45 ], [ -2.3, 47.5 ], [ -2.1, 47.45 ], [ -1.9, 47.4 ] ] } }
]
}
