{
"type": "FeatureCollection",
"name": "watersheds",
"crs": { "type": "name", "properties": { "name": "urn:ogc:def:crs:OGC:1.3:CRS84" } },
"features": [
{ "type": "Feature", "properties": { "basin_id": "BV1", "basin_name": "Bassin 1" }, "geometry": { "type": "Polygon", "coordinates": [ [ [ -2.5, 47.0 ], [ -2.2, 47.0 ], [ -2.2, 47.3 ], [ -2.5, 47.3 ], [ -2.5, 47.0 ] ] ] } },
{ "type": "Feature", "properties": { "basin_id": "BV2", "basin_name": "Bassin 2" }, "geometry": { "type": "Polygon", "coordinates": [ [ [ -2.2, 47.0 ], [ -1.9, 47.0 ], [ -1.9, 47.3 ], [ -2.2, 47.3 ], [ -2.2, 47.0 ] ] ] } },
{ "type": "Feature", "properties": { "basin_id": "BV3", "basin_name": "Bassin 3" }, "geometry": { "type": "Polygon", "coordinates": [ [ [ -1.9, 47.0 ], [ -1.6, 47.0 ], [ -1.6, 47.3 ], [ -1.9, 47.3 ], [ -1.9, 47.0 ] ] ] } },
{ "type": "Feature", "properties": { "basin_id": "BV4", "basin_name": "Bassin 4" }, "geometry": { "type": "Polygon", "coordinates": [ [ [ -2.5, 47.3 ], [ -2.2, 47.3 ], [ -2.2, 47.6 ], [ -2.5, 47.6 ], [ -2.5, 47.3 ] ] ] } },
{ "type": "Feature", "properties": { "basin_id": "BV5", "basin_name": "Bassin 5" }, "geometry": { "type": "Polygon", "coordinates": [ [ [ -2.2, 47.3 ], [ -1.9, 47.3 ], [ -1.9, 47.6 ], [ -2.2, 47.6 ], [ -2.2, 47.3 ] ] ] } }
]
}
